[{"OBJECT_NAME":"ONEWEB-0361","OBJECT_ID":"2021-090J","EPOCH":"2025-12-03T07:37:16.355424","MEAN_MOTION":13.2077191,"ECCENTRICITY":0.00017633,"INCLINATION":87.9185,"RA_OF_ASC_NODE":313.5014,"ARG_OF_PERICENTER":90.9527,"MEAN_ANOMALY":269.1808,"EPHEMERIS_TYPE":0,"CLASSIFICATION_TYPE":"U","NORAD_CAT_ID":49287,"ELEMENT_SET_NO":999,"REV_AT_EPOCH":20444,"BSTAR":-0.00028137274,"MEAN_MOTION_DOT":-1.01e-6,"MEAN_MOTION_DDOT":0},{"OBJECT_NAME":"ONEWEB-0362","OBJECT_ID":"2021-090K","EPOCH":"2025-12-03T06:23:57.114528","MEAN_MOTION":13.1972391,"ECCENTRICITY":0.00018316,"INCLINATION":87.9189,"RA_OF_ASC_NODE":343.9707,"ARG_OF_PERICENTER":82.2268,"MEAN_ANOMALY":277.9073,"EPHEMERIS_TYPE":0,"CLASSIFICATION_TYPE":"U","NORAD_CAT_ID":49288,"ELEMENT_SET_NO":999,"REV_AT_EPOCH":20107,"BSTAR":5.2324364e-5,"MEAN_MOTION_DOT":3.4e-7,"MEAN_MOTION_DDOT":0},{"OBJECT_NAME":"ONEWEB-0363","OBJECT_ID":"2021-090L","EPOCH":"2025-12-03T07:59:59.907264","MEAN_MOTION":13.20770546,"ECCENTRICITY":0.00017508,"INCLINATION":87.9195,"RA_OF_ASC_NODE":313.496,"ARG_OF_PERICENTER":97.0091,"MEAN_ANOMALY":263.1241,"EPHEMERIS_TYPE":0,"CLASSIFICATION_TYPE":"U","NORAD_CAT_ID":49289,"ELEMENT_SET_NO":999,"REV_AT_EPOCH":20445,"BSTAR":0.00012725949,"MEAN_MOTION_DOT":6.5e-7,"MEAN_MOTION_DDOT":0},{"OBJECT_NAME":"ONEWEB-0364","OBJECT_ID":"2021-090M","EPOCH":"2025-12-03T07:05:26.608704","MEAN_MOTION":13.207699,"ECCENTRICITY":0.00017796,"INCLINATION":87.9187,"RA_OF_ASC_NODE":313.5278,"ARG_OF_PERICENTER":88.7922,"MEAN_ANOMALY":271.3415,"EPHEMERIS_TYPE":0,"CLASSIFICATION_TYPE":"U","NORAD_CAT_ID":49290,"ELEMENT_SET_NO":999,"REV_AT_EPOCH":20558,"BSTAR":-5.7774407e-5,"MEAN_MOTION_DOT":-1.1e-7,"MEAN_MOTION_DDOT":0},{"OBJECT_NAME":"ONEWEB-0365","OBJECT_ID":"2021-090N","EPOCH":"2025-12-03T06:37:36.049152","MEAN_MOTION":13.19723524,"ECCENTRICITY":0.0001877,"INCLINATION":87.921,"RA_OF_ASC_NODE":343.9323,"ARG_OF_PERICENTER":88.5765,"MEAN_ANOMALY":271.5582,"EPHEMERIS_TYPE":0,"CLASSIFICATION_TYPE":"U","NORAD_CAT_ID":49291,"ELEMENT_SET_NO":999,"REV_AT_EPOCH":20058,"BSTAR":0.00014641968,"MEAN_MOTION_DOT":7.2e-7,"MEAN_MOTION_DDOT":0},{"OBJECT_NAME":"ONEWEB-0366","OBJECT_ID":"2021-090P","EPOCH":"2025-12-03T06:43:43.592160","MEAN_MOTION":13.14501985,"ECCENTRICITY":0.00017203,"INCLINATION":87.8979,"RA_OF_ASC_NODE":328.7504,"ARG_OF_PERICENTER":89.5634,"MEAN_ANOMALY":270.5693,"EPHEMERIS_TYPE":0,"CLASSIFICATION_TYPE":"U","NORAD_CAT_ID":49292,"ELEMENT_SET_NO":999,"REV_AT_EPOCH":20182,"BSTAR":0.00068058677,"MEAN_MOTION_DOT":2.65e-6,"MEAN_MOTION_DDOT":0},{"OBJECT_NAME":"ONEWEB-0367","OBJECT_ID":"2021-090Q","EPOCH":"2025-12-03T07:57:43.173216","MEAN_MOTION":13.20769753,"ECCENTRICITY":0.00018964,"INCLINATION":87.9195,"RA_OF_ASC_NODE":313.4953,"ARG_OF_PERICENTER":79.1674,"MEAN_ANOMALY":280.9672,"EPHEMERIS_TYPE":0,"CLASSIFICATION_TYPE":"U","NORAD_CAT_ID":49293,"ELEMENT_SET_NO":999,"REV_AT_EPOCH":20397,"BSTAR":6.9735207e-5,"MEAN_MOTION_DOT":4.1e-7,"MEAN_MOTION_DDOT":0},{"OBJECT_NAME":"ONEWEB-0368","OBJECT_ID":"2021-090R","EPOCH":"2025-12-03T07:19:05.615040","MEAN_MOTION":13.2076913,"ECCENTRICITY":0.00024381,"INCLINATION":87.9187,"RA_OF_ASC_NODE":313.5312,"ARG_OF_PERICENTER":98.6115,"MEAN_ANOMALY":261.5295,"EPHEMERIS_TYPE":0,"CLASSIFICATION_TYPE":"U","NORAD_CAT_ID":49294,"ELEMENT_SET_NO":999,"REV_AT_EPOCH":20512,"BSTAR":-0.00020764532,"MEAN_MOTION_DOT":-7.1e-7,"MEAN_MOTION_DDOT":0},{"OBJECT_NAME":"ONEWEB-0369","OBJECT_ID":"2021-090S","EPOCH":"2025-12-03T06:30:45.719136","MEAN_MOTION":13.19723682,"ECCENTRICITY":0.00018646,"INCLINATION":87.9199,"RA_OF_ASC_NODE":343.9616,"ARG_OF_PERICENTER":89.7513,"MEAN_ANOMALY":270.3834,"EPHEMERIS_TYPE":0,"CLASSIFICATION_TYPE":"U","NORAD_CAT_ID":49295,"ELEMENT_SET_NO":999,"REV_AT_EPOCH":20057,"BSTAR":7.60325e-7,"MEAN_MOTION_DOT":1.3e-7,"MEAN_MOTION_DDOT":0},{"OBJECT_NAME":"ONEWEB-0370","OBJECT_ID":"2021-090T","EPOCH":"2025-12-03T08:11:20.908608","MEAN_MOTION":13.20770102,"ECCENTRICITY":0.00016717,"INCLINATION":87.9188,"RA_OF_ASC_NODE":313.4987,"ARG_OF_PERICENTER":76.2123,"MEAN_ANOMALY":283.9196,"EPHEMERIS_TYPE":0,"CLASSIFICATION_TYPE":"U","NORAD_CAT_ID":49296,"ELEMENT_SET_NO":999,"REV_AT_EPOCH":20401,"BSTAR":0.00023614304,"MEAN_MOTION_DOT":1.09e-6,"MEAN_MOTION_DDOT":0},{"OBJECT_NAME":"ONEWEB-0371","OBJECT_ID":"2021-090U","EPOCH":"2025-12-03T06:42:08.675712","MEAN_MOTION":13.19723408,"ECCENTRICITY":0.00018411,"INCLINATION":87.9201,"RA_OF_ASC_NODE":343.947,"ARG_OF_PERICENTER":87.4544,"MEAN_ANOMALY":272.68,"EPHEMERIS_TYPE":0,"CLASSIFICATION_TYPE":"U","NORAD_CAT_ID":49297,"ELEMENT_SET_NO":999,"REV_AT_EPOCH":20061,"BSTAR":5.2403689e-5,"MEAN_MOTION_DOT":3.4e-7,"MEAN_MOTION_DDOT":0},{"OBJECT_NAME":"ONEWEB-0372","OBJECT_ID":"2021-090V","EPOCH":"2025-12-03T07:55:13.647648","MEAN_MOTION":13.20774459,"ECCENTRICITY":0.00019123,"INCLINATION":87.9183,"RA_OF_ASC_NODE":313.5014,"ARG_OF_PERICENTER":84.9286,"MEAN_ANOMALY":275.2065,"EPHEMERIS_TYPE":0,"CLASSIFICATION_TYPE":"U","NORAD_CAT_ID":49298,"ELEMENT_SET_NO":999,"REV_AT_EPOCH":20398,"BSTAR":3.7450991e-5,"MEAN_MOTION_DOT":2.8e-7,"MEAN_MOTION_DDOT":0},{"OBJECT_NAME":"ONEWEB-0373","OBJECT_ID":"2021-090W","EPOCH":"2025-12-03T04:55:53.845248","MEAN_MOTION":13.20773434,"ECCENTRICITY":0.00017174,"INCLINATION":87.9183,"RA_OF_ASC_NODE":313.5392,"ARG_OF_PERICENTER":85.9903,"MEAN_ANOMALY":274.1427,"EPHEMERIS_TYPE":0,"CLASSIFICATION_TYPE":"U","NORAD_CAT_ID":49299,"ELEMENT_SET_NO":999,"REV_AT_EPOCH":20515,"BSTAR":4.0773424e-5,"MEAN_MOTION_DOT":3.0e-7,"MEAN_MOTION_DDOT":0},{"OBJECT_NAME":"ONEWEB-0374","OBJECT_ID":"2021-090X","EPOCH":"2025-12-03T08:15:03.074976","MEAN_MOTION":13.14504251,"ECCENTRICITY":0.00018881,"INCLINATION":87.8985,"RA_OF_ASC_NODE":328.7151,"ARG_OF_PERICENTER":105.4066,"MEAN_ANOMALY":254.7272,"EPHEMERIS_TYPE":0,"CLASSIFICATION_TYPE":"U","NORAD_CAT_ID":49300,"ELEMENT_SET_NO":999,"REV_AT_EPOCH":20183,"BSTAR":0.00034211041,"MEAN_MOTION_DOT":1.4e-6,"MEAN_MOTION_DDOT":0},{"OBJECT_NAME":"ONEWEB-0375","OBJECT_ID":"2021-090Y","EPOCH":"2025-12-03T04:37:42.256416","MEAN_MOTION":13.20740691,"ECCENTRICITY":0.00021092,"INCLINATION":87.925,"RA_OF_ASC_NODE":313.5223,"ARG_OF_PERICENTER":114.8026,"MEAN_ANOMALY":245.3327,"EPHEMERIS_TYPE":0,"CLASSIFICATION_TYPE":"U","NORAD_CAT_ID":49301,"ELEMENT_SET_NO":999,"REV_AT_EPOCH":20465,"BSTAR":-0.014911795,"MEAN_MOTION_DOT":-6.043e-5,"MEAN_MOTION_DDOT":0},{"OBJECT_NAME":"ONEWEB-0376","OBJECT_ID":"2021-090Z","EPOCH":"2025-12-03T06:39:52.348608","MEAN_MOTION":13.19726629,"ECCENTRICITY":0.00019845,"INCLINATION":87.9205,"RA_OF_ASC_NODE":343.9344,"ARG_OF_PERICENTER":87.4964,"MEAN_ANOMALY":272.6396,"EPHEMERIS_TYPE":0,"CLASSIFICATION_TYPE":"U","NORAD_CAT_ID":49302,"ELEMENT_SET_NO":999,"REV_AT_EPOCH":20061,"BSTAR":7.9997293e-5,"MEAN_MOTION_DOT":4.5e-7,"MEAN_MOTION_DDOT":0},{"OBJECT_NAME":"ONEWEB-0377","OBJECT_ID":"2021-090AA","EPOCH":"2025-12-03T07:55:38.318304","MEAN_MOTION":13.20773149,"ECCENTRICITY":0.00016042,"INCLINATION":87.919,"RA_OF_ASC_NODE":313.4951,"ARG_OF_PERICENTER":83.6485,"MEAN_ANOMALY":276.4831,"EPHEMERIS_TYPE":0,"CLASSIFICATION_TYPE":"U","NORAD_CAT_ID":49303,"ELEMENT_SET_NO":999,"REV_AT_EPOCH":20466,"BSTAR":3.6399e-5,"MEAN_MOTION_DOT":2.8e-7,"MEAN_MOTION_DDOT":0}]
