ONEWEB-0361             
1 49287U 21090J   25337.31755041 -.00000101  00000+0 -28137-3 0  9995
2 49287  87.9185 313.5014 0001763  90.9527 269.1808 13.20771910204445
ONEWEB-0362             
1 49288U 21090K   25337.26663327  .00000034  00000+0  52324-4 0  9994
2 49288  87.9189 343.9707 0001831  82.2268 277.9073 13.19723910201070
ONEWEB-0363             
1 49289U 21090L   25337.33333226  .00000065  00000+0  12726-3 0  9990
2 49289  87.9195 313.4960 0001750  97.0091 263.1241 13.20770546204457
ONEWEB-0364             
1 49290U 21090M   25337.29544686 -.00000011  00000+0 -57774-4 0  9997
2 49290  87.9187 313.5278 0001779  88.7922 271.3415 13.20769900205585
ONEWEB-0365             
1 49291U 21090N   25337.27611168  .00000072  00000+0  14642-3 0  9997
2 49291  87.9210 343.9323 0001877  88.5765 271.5582 13.19723524200585
ONEWEB-0366             
1 49292U 21090P   25337.28036565  .00000265  00000+0  68059-3 0  9996
2 49292  87.8979 328.7504 0001720  89.5634 270.5693 13.14501985201822
ONEWEB-0367             
1 49293U 21090Q   25337.33174969  .00000041  00000+0  69735-4 0  9999
2 49293  87.9195 313.4953 0001896  79.1674 280.9672 13.20769753203972
ONEWEB-0368             
1 49294U 21090R   25337.30492610 -.00000071  00000+0 -20765-3 0  9997
2 49294  87.9187 313.5312 0002438  98.6115 261.5295 13.20769130205127
ONEWEB-0369             
1 49295U 21090S   25337.27136249  .00000013  00000+0  76033-6 0  9993
2 49295  87.9199 343.9616 0001864  89.7513 270.3834 13.19723682200571
ONEWEB-0370             
1 49296U 21090T   25337.34121422  .00000109  00000+0  23614-3 0  9999
2 49296  87.9188 313.4987 0001671  76.2123 283.9196 13.20770102204012
ONEWEB-0371             
1 49297U 21090U   25337.27926708  .00000034  00000+0  52404-4 0  9999
2 49297  87.9201 343.9470 0001841  87.4544 272.6800 13.19723408200618
ONEWEB-0372             
1 49298U 21090V   25337.33001907  .00000028  00000+0  37451-4 0  9990
2 49298  87.9183 313.5014 0001912  84.9286 275.2065 13.20774459203988
ONEWEB-0373             
1 49299U 21090W   25337.20548432  .00000030  00000+0  40773-4 0  9990
2 49299  87.9183 313.5392 0001717  85.9903 274.1427 13.20773434205151
ONEWEB-0374             
1 49300U 21090X   25337.34378559  .00000140  00000+0  34211-3 0  9990
2 49300  87.8985 328.7151 0001888 105.4066 254.7272 13.14504251201836
ONEWEB-0375             
1 49301U 21090Y   25337.19285019 -.00006043  00000+0 -14912-1 0  9996
2 49301  87.9250 313.5223 0002109 114.8026 245.3327 13.20740691204659
ONEWEB-0376             
1 49302U 21090Z   25337.27768922  .00000045  00000+0  79997-4 0  9996
2 49302  87.9205 343.9344 0001984  87.4964 272.6396 13.19726629200611
ONEWEB-0377             
1 49303U 21090AA  25337.33030461  .00000028  00000+0  36399-4 0  9994
2 49303  87.9190 313.4951 0001604  83.6485 276.4831 13.20773149204662
